KUIPER-00112            
1 65150U 25171U   26004.89813120  .00006677  00000+0  90314-3 0  9992
2 65150  51.9024  77.6797 0008491 311.8330  48.1906 14.79961709 23471
KUIPER-00114            
1 65151U 25171V   26004.50509360  .00008014  00000+0  10786-2 0  9990
2 65151  51.8995  99.4285 0005284 251.5931 108.4457 14.79944024 23131
KUIPER-00115            
1 65152U 25171W   26004.91826907  .00006081  00000+0  82551-3 0  9997
2 65152  51.9007  90.0839 0009010 279.4560  80.5384 14.79944431 23307
KUIPER-00116            
1 65153U 25171X   26004.94662200  .00004256  00000+0  58626-3 0  9993
2 65153  51.9001  94.9997 0009122 240.3682 119.6373 14.79975566 23233
KUIPER-00118            
1 65154U 25171Y   26004.94396315 -.00005789  00000+0 -73105-3 0  9998
2 65154  51.9015  97.4682 0000539 282.8392  77.2510 14.79931555 23209
KUIPER-00119            
1 65155U 25171Z   26004.41727298  .00007273  00000+0  98068-3 0  9992
2 65155  51.9006  87.3807 0007443 272.0053  88.0057 14.79978090 23293
KUIPER-00120            
1 65762U 25217A   26004.35056315  .00006786  00000+0  99320-3 0  9995
2 65762  51.9004 336.5458 0003409  90.8394 269.2957 14.76573176 15227
KUIPER-00132            
1 65763U 25217B   26004.57971078  .00040619  00000+0  10810-2 0  9991
2 65763  51.8637 314.2258 0009207  96.8070 263.3965 15.37771551 15554
