<?xml version="1.0" encoding="UTF-8"?>
<ndm xmlns:xsi="http://www.w3.org/2001/XMLSchema-instance" xsi:noNamespaceSchemaLocation="https://sanaregistry.org/r/ndmxml_unqualified/ndmxml-2.0.0-master-2.0.xsd">
<omm id="CCSDS_OMM_VERS" version="2.0">
<header><CREATION_DATE/><ORIGINATOR/></header><body><segment><metadata><OBJECT_NAME>KUIPER-00112</OBJECT_NAME><OBJECT_ID>2025-171U</OBJECT_ID><CENTER_NAME>EARTH</CENTER_NAME><REF_FRAME>TEME</REF_FRAME><TIME_SYSTEM>UTC</TIME_SYSTEM><MEAN_ELEMENT_THEORY>SGP4</MEAN_ELEMENT_THEORY></metadata><data><meanElements><EPOCH>2026-01-04T21:33:18.535680</EPOCH><MEAN_MOTION>14.79961709</MEAN_MOTION><ECCENTRICITY>.00084916</ECCENTRICITY><INCLINATION>51.9024</INCLINATION><RA_OF_ASC_NODE>77.6797</RA_OF_ASC_NODE><ARG_OF_PERICENTER>311.8330</ARG_OF_PERICENTER><MEAN_ANOMALY>48.1906</MEAN_ANOMALY></meanElements><tleParameters><EPHEMERIS_TYPE>0</EPHEMERIS_TYPE><CLASSIFICATION_TYPE>U</CLASSIFICATION_TYPE><NORAD_CAT_ID>65150</NORAD_CAT_ID><ELEMENT_SET_NO>999</ELEMENT_SET_NO><REV_AT_EPOCH>2347</REV_AT_EPOCH><BSTAR>.90313574E-3</BSTAR><MEAN_MOTION_DOT>.6677E-4</MEAN_MOTION_DOT><MEAN_MOTION_DDOT>0</MEAN_MOTION_DDOT></tleParameters></data></segment></body></omm>
<omm id="CCSDS_OMM_VERS" version="2.0">
<header><CREATION_DATE/><ORIGINATOR/></header><body><segment><metadata><OBJECT_NAME>KUIPER-00114</OBJECT_NAME><OBJECT_ID>2025-171V</OBJECT_ID><CENTER_NAME>EARTH</CENTER_NAME><REF_FRAME>TEME</REF_FRAME><TIME_SYSTEM>UTC</TIME_SYSTEM><MEAN_ELEMENT_THEORY>SGP4</MEAN_ELEMENT_THEORY></metadata><data><meanElements><EPOCH>2026-01-04T12:07:20.087040</EPOCH><MEAN_MOTION>14.79944024</MEAN_MOTION><ECCENTRICITY>.00052842</ECCENTRICITY><INCLINATION>51.8995</INCLINATION><RA_OF_ASC_NODE>99.4285</RA_OF_ASC_NODE><ARG_OF_PERICENTER>251.5931</ARG_OF_PERICENTER><MEAN_ANOMALY>108.4457</MEAN_ANOMALY></meanElements><tleParameters><EPHEMERIS_TYPE>0</EPHEMERIS_TYPE><CLASSIFICATION_TYPE>U</CLASSIFICATION_TYPE><NORAD_CAT_ID>65151</NORAD_CAT_ID><ELEMENT_SET_NO>999</ELEMENT_SET_NO><REV_AT_EPOCH>2313</REV_AT_EPOCH><BSTAR>.1078639E-2</BSTAR><MEAN_MOTION_DOT>.8014E-4</MEAN_MOTION_DOT><MEAN_MOTION_DDOT>0</MEAN_MOTION_DDOT></tleParameters></data></segment></body></omm>
<omm id="CCSDS_OMM_VERS" version="2.0">
<header><CREATION_DATE/><ORIGINATOR/></header><body><segment><metadata><OBJECT_NAME>KUIPER-00115</OBJECT_NAME><OBJECT_ID>2025-171W</OBJECT_ID><CENTER_NAME>EARTH</CENTER_NAME><REF_FRAME>TEME</REF_FRAME><TIME_SYSTEM>UTC</TIME_SYSTEM><MEAN_ELEMENT_THEORY>SGP4</MEAN_ELEMENT_THEORY></metadata><data><meanElements><EPOCH>2026-01-04T22:02:18.447648</EPOCH><MEAN_MOTION>14.79944431</MEAN_MOTION><ECCENTRICITY>.00090105</ECCENTRICITY><INCLINATION>51.9007</INCLINATION><RA_OF_ASC_NODE>90.0839</RA_OF_ASC_NODE><ARG_OF_PERICENTER>279.4560</ARG_OF_PERICENTER><MEAN_ANOMALY>80.5384</MEAN_ANOMALY></meanElements><tleParameters><EPHEMERIS_TYPE>0</EPHEMERIS_TYPE><CLASSIFICATION_TYPE>U</CLASSIFICATION_TYPE><NORAD_CAT_ID>65152</NORAD_CAT_ID><ELEMENT_SET_NO>999</ELEMENT_SET_NO><REV_AT_EPOCH>2330</REV_AT_EPOCH><BSTAR>.82551057E-3</BSTAR><MEAN_MOTION_DOT>.6081E-4</MEAN_MOTION_DOT><MEAN_MOTION_DDOT>0</MEAN_MOTION_DDOT></tleParameters></data></segment></body></omm>
<omm id="CCSDS_OMM_VERS" version="2.0">
<header><CREATION_DATE/><ORIGINATOR/></header><body><segment><metadata><OBJECT_NAME>KUIPER-00116</OBJECT_NAME><OBJECT_ID>2025-171X</OBJECT_ID><CENTER_NAME>EARTH</CENTER_NAME><REF_FRAME>TEME</REF_FRAME><TIME_SYSTEM>UTC</TIME_SYSTEM><MEAN_ELEMENT_THEORY>SGP4</MEAN_ELEMENT_THEORY></metadata><data><meanElements><EPOCH>2026-01-04T22:43:08.140800</EPOCH><MEAN_MOTION>14.79975566</MEAN_MOTION><ECCENTRICITY>.00091228</ECCENTRICITY><INCLINATION>51.9001</INCLINATION><RA_OF_ASC_NODE>94.9997</RA_OF_ASC_NODE><ARG_OF_PERICENTER>240.3682</ARG_OF_PERICENTER><MEAN_ANOMALY>119.6373</MEAN_ANOMALY></meanElements><tleParameters><EPHEMERIS_TYPE>0</EPHEMERIS_TYPE><CLASSIFICATION_TYPE>U</CLASSIFICATION_TYPE><NORAD_CAT_ID>65153</NORAD_CAT_ID><ELEMENT_SET_NO>999</ELEMENT_SET_NO><REV_AT_EPOCH>2323</REV_AT_EPOCH><BSTAR>.58626081E-3</BSTAR><MEAN_MOTION_DOT>.4256E-4</MEAN_MOTION_DOT><MEAN_MOTION_DDOT>0</MEAN_MOTION_DDOT></tleParameters></data></segment></body></omm>
<omm id="CCSDS_OMM_VERS" version="2.0">
<header><CREATION_DATE/><ORIGINATOR/></header><body><segment><metadata><OBJECT_NAME>KUIPER-00118</OBJECT_NAME><OBJECT_ID>2025-171Y</OBJECT_ID><CENTER_NAME>EARTH</CENTER_NAME><REF_FRAME>TEME</REF_FRAME><TIME_SYSTEM>UTC</TIME_SYSTEM><MEAN_ELEMENT_THEORY>SGP4</MEAN_ELEMENT_THEORY></metadata><data><meanElements><EPOCH>2026-01-04T22:39:18.416160</EPOCH><MEAN_MOTION>14.79931555</MEAN_MOTION><ECCENTRICITY>.00005395</ECCENTRICITY><INCLINATION>51.9015</INCLINATION><RA_OF_ASC_NODE>97.4682</RA_OF_ASC_NODE><ARG_OF_PERICENTER>282.8392</ARG_OF_PERICENTER><MEAN_ANOMALY>77.2510</MEAN_ANOMALY></meanElements><tleParameters><EPHEMERIS_TYPE>0</EPHEMERIS_TYPE><CLASSIFICATION_TYPE>U</CLASSIFICATION_TYPE><NORAD_CAT_ID>65154</NORAD_CAT_ID><ELEMENT_SET_NO>999</ELEMENT_SET_NO><REV_AT_EPOCH>2320</REV_AT_EPOCH><BSTAR>-.73105254E-3</BSTAR><MEAN_MOTION_DOT>-.5789E-4</MEAN_MOTION_DOT><MEAN_MOTION_DDOT>0</MEAN_MOTION_DDOT></tleParameters></data></segment></body></omm>
<omm id="CCSDS_OMM_VERS" version="2.0">
<header><CREATION_DATE/><ORIGINATOR/></header><body><segment><metadata><OBJECT_NAME>KUIPER-00119</OBJECT_NAME><OBJECT_ID>2025-171Z</OBJECT_ID><CENTER_NAME>EARTH</CENTER_NAME><REF_FRAME>TEME</REF_FRAME><TIME_SYSTEM>UTC</TIME_SYSTEM><MEAN_ELEMENT_THEORY>SGP4</MEAN_ELEMENT_THEORY></metadata><data><meanElements><EPOCH>2026-01-04T10:00:52.385472</EPOCH><MEAN_MOTION>14.79978090</MEAN_MOTION><ECCENTRICITY>.00074433</ECCENTRICITY><INCLINATION>51.9006</INCLINATION><RA_OF_ASC_NODE>87.3807</RA_OF_ASC_NODE><ARG_OF_PERICENTER>272.0053</ARG_OF_PERICENTER><MEAN_ANOMALY>88.0057</MEAN_ANOMALY></meanElements><tleParameters><EPHEMERIS_TYPE>0</EPHEMERIS_TYPE><CLASSIFICATION_TYPE>U</CLASSIFICATION_TYPE><NORAD_CAT_ID>65155</NORAD_CAT_ID><ELEMENT_SET_NO>999</ELEMENT_SET_NO><REV_AT_EPOCH>2329</REV_AT_EPOCH><BSTAR>.98067835E-3</BSTAR><MEAN_MOTION_DOT>.7273E-4</MEAN_MOTION_DOT><MEAN_MOTION_DDOT>0</MEAN_MOTION_DDOT></tleParameters></data></segment></body></omm>
<omm id="CCSDS_OMM_VERS" version="2.0">
<header><CREATION_DATE/><ORIGINATOR/></header><body><segment><metadata><OBJECT_NAME>KUIPER-00120</OBJECT_NAME><OBJECT_ID>2025-217A</OBJECT_ID><CENTER_NAME>EARTH</CENTER_NAME><REF_FRAME>TEME</REF_FRAME><TIME_SYSTEM>UTC</TIME_SYSTEM><MEAN_ELEMENT_THEORY>SGP4</MEAN_ELEMENT_THEORY></metadata><data><meanElements><EPOCH>2026-01-04T08:24:48.656160</EPOCH><MEAN_MOTION>14.76573176</MEAN_MOTION><ECCENTRICITY>.00034098</ECCENTRICITY><INCLINATION>51.9004</INCLINATION><RA_OF_ASC_NODE>336.5458</RA_OF_ASC_NODE><ARG_OF_PERICENTER>90.8394</ARG_OF_PERICENTER><MEAN_ANOMALY>269.2957</MEAN_ANOMALY></meanElements><tleParameters><EPHEMERIS_TYPE>0</EPHEMERIS_TYPE><CLASSIFICATION_TYPE>U</CLASSIFICATION_TYPE><NORAD_CAT_ID>65762</NORAD_CAT_ID><ELEMENT_SET_NO>999</ELEMENT_SET_NO><REV_AT_EPOCH>1522</REV_AT_EPOCH><BSTAR>.9931976E-3</BSTAR><MEAN_MOTION_DOT>.6786E-4</MEAN_MOTION_DOT><MEAN_MOTION_DDOT>0</MEAN_MOTION_DDOT></tleParameters></data></segment></body></omm>
<omm id="CCSDS_OMM_VERS" version="2.0">
<header><CREATION_DATE/><ORIGINATOR/></header><body><segment><metadata><OBJECT_NAME>KUIPER-00132</OBJECT_NAME><OBJECT_ID>2025-217B</OBJECT_ID><CENTER_NAME>EARTH</CENTER_NAME><REF_FRAME>TEME</REF_FRAME><TIME_SYSTEM>UTC</TIME_SYSTEM><MEAN_ELEMENT_THEORY>SGP4</MEAN_ELEMENT_THEORY></metadata><data><meanElements><EPOCH>2026-01-04T13:54:47.011392</EPOCH><MEAN_MOTION>15.37771551</MEAN_MOTION><ECCENTRICITY>.0009207</ECCENTRICITY><INCLINATION>51.8637</INCLINATION><RA_OF_ASC_NODE>314.2258</RA_OF_ASC_NODE><ARG_OF_PERICENTER>96.8070</ARG_OF_PERICENTER><MEAN_ANOMALY>263.3965</MEAN_ANOMALY></meanElements><tleParameters><EPHEMERIS_TYPE>0</EPHEMERIS_TYPE><CLASSIFICATION_TYPE>U</CLASSIFICATION_TYPE><NORAD_CAT_ID>65763</NORAD_CAT_ID><ELEMENT_SET_NO>999</ELEMENT_SET_NO><REV_AT_EPOCH>1555</REV_AT_EPOCH><BSTAR>.1081E-2</BSTAR><MEAN_MOTION_DOT>.40619E-3</MEAN_MOTION_DOT><MEAN_MOTION_DDOT>0</MEAN_MOTION_DDOT></tleParameters></data></segment></body></omm>

</ndm>
